[{"OBJECT_NAME":"OBJECT E","OBJECT_ID":"2024-174E","EPOCH":"2026-03-09T23:40:24.424320","MEAN_MOTION":15.26241811,"ECCENTRICITY":0.00122518,"INCLINATION":97.4515,"RA_OF_ASC_NODE":80.1669,"ARG_OF_PERICENTER":217.7524,"MEAN_ANOMALY":142.2856,"EPHEMERIS_TYPE":0,"CLASSIFICATION_TYPE":"U","NORAD_CAT_ID":61242,"ELEMENT_SET_NO":999,"REV_AT_EPOCH":8070,"BSTAR":0.00031155901,"MEAN_MOTION_DOT":8.013e-5,"MEAN_MOTION_DDOT":0},{"OBJECT_NAME":"STARLINK-35426","OBJECT_ID":"2025-259V","EPOCH":"2026-03-08T23:28:12.081504","MEAN_MOTION":15.2761148,"ECCENTRICITY":0.00022721,"INCLINATION":43.003,"RA_OF_ASC_NODE":278.2576,"ARG_OF_PERICENTER":278.3776,"MEAN_ANOMALY":81.6818,"EPHEMERIS_TYPE":0,"CLASSIFICATION_TYPE":"U","NORAD_CAT_ID":66441,"ELEMENT_SET_NO":999,"REV_AT_EPOCH":1938,"BSTAR":0.001072099,"MEAN_MOTION_DOT":0.00029387,"MEAN_MOTION_DDOT":0}]
